STARLINK-37896          
1 69970U 26157AD  26197.16668980 -.02240173  14076-2 -53474-2 0  9997
2 69970  53.1588 290.7083 0000699  85.5001 265.6561 15.96106581  2314
STARLINK-37922          
1 69971U 26157AE  26197.16668980 -.02252511  14229-2 -53695-2 0  9992
2 69971  53.1587 290.7065 0000722  77.2310 274.7959 15.96132419  2313
CHUANG XIN 26 (CX-26)   
1 69972U 26158A   26194.51442212 -.00000212  00000+0 -21871-4 0  9997
2 69972  49.9860 287.5119 0004887 294.2352  65.8050 14.25122238   462
CZ-10B DEB              
1 69973U 26158B   26194.58513205  .00000099  00000+0  11013-3 0  9993
2 69973  49.9846 287.2193 0005701 305.8104  54.2279 14.24885997   479
CZ-10B R/B              
1 69974U 26158C   26194.56253036  .00000143  00000+0  55130-4 0  9994
2 69974  49.9631 286.3519 0197944 194.8878 164.6170 14.64293949   480
STARLINK-38024          
1 69975U 26159A   26197.16668980 -.02008750  11340-2 -52866-2 0  9992
2 69975  97.2856  35.8481 0001291  84.8970 283.7494 15.94936413  2018
STARLINK-37993          
1 69976U 26159B   26197.16668980 -.01982711  11081-2 -51780-2 0  9996
2 69976  97.2856  35.8483 0001341  86.5161 283.1632 15.95078393  2011
STARLINK-37995          
1 69977U 26159C   26197.16668980 -.01969650  10962-2 -51019-2 0  9996
2 69977  97.2855  35.8490 0001487  78.6111 292.1635 15.95230371  2016
STARLINK-38057          
1 69978U 26159D   26197.16668980 -.01952121  10796-2 -50145-2 0  9996
2 69978  97.2855  35.8493 0001495  77.7774 294.1920 15.95385084  2015
STARLINK-38063          
1 69979U 26159E   26197.16668980 -.01932859  10614-2 -49232-2 0  9997
2 69979  97.2854  35.8499 0001444  80.6356 292.5587 15.95541331  2014
STARLINK-38093          
1 69980U 26159F   26197.16668980 -.01929636  10600-2 -48719-2 0  9992
2 69980  97.2854  35.8503 0001424  82.3497 292.0919 15.95705620  2012
STARLINK-38050          
1 69981U 26159G   26197.16668980 -.01905696  10370-2 -47743-2 0  9993
2 69981  97.2854  35.8508 0001412  79.3617 296.2319 15.95847216  2013
STARLINK-38065          
1 69982U 26159H   26197.16668980 -.01912779  10461-2 -47505-2 0  9991
2 69982  97.2854  35.8514 0001458  79.1235 297.6687 15.96010139  2015
STARLINK-38077          
1 69983U 26159J   26197.16668980 -.01896304  10309-2 -46722-2 0  9998
2 69983  97.2854  35.8518 0001331  80.9271 297.0430 15.96156681  2013
STARLINK-38068          
1 69984U 26159K   26197.16668980 -.01871554  10071-2 -45795-2 0  9994
2 69984  97.2853  35.8522 0001358  85.9048 293.1105 15.96281780  2019
STARLINK-38089          
1 69985U 26159L   26197.16668980 -.01865615  10028-2 -45270-2 0  9996
2 69985  97.2852  35.8528 0001341  83.3913 296.8405 15.96435769  2011
STARLINK-38073          
1 69986U 26159M   26197.16668980 -.01855211  99380-3 -44679-2 0  9999
2 69986  97.2851  35.8531 0001449  77.2076 304.1481 15.96573747  2012
STARLINK-38099          
1 69987U 26159N   26197.16668980 -.01842611  98259-3 -44055-2 0  9992
2 69987  97.2851  35.8536 0001432  78.1607 304.2581 15.96705901  2011
STARLINK-38064          
1 69988U 26159P   26197.16668980 -.01801658  94475-3 -42453-2 0  9995
2 69988  97.2851  35.8542 0001437  70.9585 313.7133 15.96969390  2011
STARLINK-38080          
1 69989U 26159Q   26197.16668980 -.01824184  96567-3 -43290-2 0  9999
2 69989  97.2850  35.8541 0001548  69.7990 313.7683 15.96841324  2015
STARLINK-38070          
1 69990U 26159R   26197.16668980 -.01799648  94423-3 -42082-2 0  9994
2 69990  97.2850  35.8549 0001410  68.9604 316.8701 15.97109637  2016
STARLINK-38042          
1 69991U 26159S   26197.16668980 -.01779861  92603-3 -41357-2 0  9992
2 69991  97.2849  35.8553 0001481  78.8470 307.9578 15.97223356  2017
STARLINK-38071          
1 69992U 26159T   26197.16668980 -.01758464  90649-3 -40590-2 0  9995
2 69992  97.2849  35.8557 0001377  75.3623 312.4515 15.97342357  2013
STARLINK-38082          
1 69993U 26159U   26197.16668980 -.01757203  90651-3 -40286-2 0  9991
2 69993  97.2850  35.8561 0001396  78.2094 310.6377 15.97466066  2016
STARLINK-38090          
1 69994U 26159V   26197.16668980 -.01741547  89269-3 -39652-2 0  9994
2 69994  97.2850  35.8566 0001333  79.8538 310.0446 15.97590715  2013
STARLINK-38084          
1 69995U 26159W   26197.16668980 -.01742180  89463-3 -39373-2 0  9995
2 69995  97.2851  35.8572 0001402  74.7776 316.2637 15.97725978  2018
STARLINK-38085          
1 69996U 26159X   26197.16668980 -.01725561  87979-3 -38763-2 0  9992
2 69996  97.2849  35.8577 0001437  77.5280 314.4829 15.97833617  2013
STARLINK-38091          
1 69997U 26159Y   26197.16668980 -.01729237  88461-3 -38559-2 0  9997
2 69997  97.2850  35.8580 0001438  70.8667 322.2513 15.97968302  2013
STARLINK-38086          
1 69998U 26159Z   26197.16668980 -.01698685  85663-3 -37651-2 0  9993
2 69998  97.2849  35.8585 0001412  89.1778 304.9817 15.98073587  2012
