OBJECT_NAME,OBJECT_ID,EPOCH,MEAN_MOTION,ECCENTRICITY,INCLINATION,RA_OF_ASC_NODE,ARG_OF_PERICENTER,MEAN_ANOMALY,EPHEMERIS_TYPE,CLASSIFICATION_TYPE,NORAD_CAT_ID,ELEMENT_SET_NO,REV_AT_EPOCH,BSTAR,MEAN_MOTION_DOT,MEAN_MOTION_DDOT
STARLINK-37896,2026-157AD,2026-07-16T04:00:01.998720,15.96106581,.0000699,53.1588,290.7083,85.5001,265.6561,0,U,69970,999,231,-.53474E-2,-.2240173E-1,.14076E-2
STARLINK-37922,2026-157AE,2026-07-16T04:00:01.998720,15.96132419,.0000722,53.1587,290.7065,77.2310,274.7959,0,U,69971,999,231,-.53695E-2,-.2252511E-1,.14229E-2
CHUANG XIN 26 (CX-26),2026-158A,2026-07-13T12:20:46.071168,14.25122238,.0004887,49.9860,287.5119,294.2352,65.8050,0,U,69972,999,46,-.21871415E-4,-.212E-5,0
CZ-10B DEB,2026-158B,2026-07-13T14:02:35.409120,14.24885997,.0005701,49.9846,287.2193,305.8104,54.2279,0,U,69973,999,47,.11013E-3,.99E-6,0
CZ-10B R/B,2026-158C,2026-07-13T13:30:02.623104,14.64293949,.01979448,49.9631,286.3519,194.8878,164.6170,0,U,69974,999,48,.55130296E-4,.143E-5,0
STARLINK-38024,2026-159A,2026-07-16T04:00:01.998720,15.94936413,.0001291,97.2856,35.8481,84.8970,283.7494,0,U,69975,999,201,-.52866E-2,-.200875E-1,.1134E-2
STARLINK-37993,2026-159B,2026-07-16T04:00:01.998720,15.95078393,.0001341,97.2856,35.8483,86.5161,283.1632,0,U,69976,999,201,-.5178E-2,-.1982711E-1,.11081E-2
STARLINK-37995,2026-159C,2026-07-16T04:00:01.998720,15.95230371,.0001487,97.2855,35.8490,78.6111,292.1635,0,U,69977,999,201,-.51019E-2,-.196965E-1,.10962E-2
STARLINK-38057,2026-159D,2026-07-16T04:00:01.998720,15.95385084,.0001495,97.2855,35.8493,77.7774,294.1920,0,U,69978,999,201,-.50145E-2,-.1952121E-1,.10796E-2
STARLINK-38063,2026-159E,2026-07-16T04:00:01.998720,15.95541331,.0001444,97.2854,35.8499,80.6356,292.5587,0,U,69979,999,201,-.49232E-2,-.1932859E-1,.10614E-2
STARLINK-38093,2026-159F,2026-07-16T04:00:01.998720,15.95705620,.0001424,97.2854,35.8503,82.3497,292.0919,0,U,69980,999,201,-.48719E-2,-.1929636E-1,.106E-2
STARLINK-38050,2026-159G,2026-07-16T04:00:01.998720,15.95847216,.0001412,97.2854,35.8508,79.3617,296.2319,0,U,69981,999,201,-.47743E-2,-.1905696E-1,.1037E-2
STARLINK-38065,2026-159H,2026-07-16T04:00:01.998720,15.96010139,.0001458,97.2854,35.8514,79.1235,297.6687,0,U,69982,999,201,-.47505E-2,-.1912779E-1,.10461E-2
STARLINK-38077,2026-159J,2026-07-16T04:00:01.998720,15.96156681,.0001331,97.2854,35.8518,80.9271,297.0430,0,U,69983,999,201,-.46722E-2,-.1896304E-1,.10309E-2
STARLINK-38068,2026-159K,2026-07-16T04:00:01.998720,15.96281780,.0001358,97.2853,35.8522,85.9048,293.1105,0,U,69984,999,201,-.45795E-2,-.1871554E-1,.10071E-2
STARLINK-38089,2026-159L,2026-07-16T04:00:01.998720,15.96435769,.0001341,97.2852,35.8528,83.3913,296.8405,0,U,69985,999,201,-.4527E-2,-.1865615E-1,.10028E-2
STARLINK-38073,2026-159M,2026-07-16T04:00:01.998720,15.96573747,.0001449,97.2851,35.8531,77.2076,304.1481,0,U,69986,999,201,-.44679E-2,-.1855211E-1,.9938E-3
STARLINK-38099,2026-159N,2026-07-16T04:00:01.998720,15.96705901,.0001432,97.2851,35.8536,78.1607,304.2581,0,U,69987,999,201,-.44055E-2,-.1842611E-1,.98259E-3
STARLINK-38064,2026-159P,2026-07-16T04:00:01.998720,15.96969390,.0001437,97.2851,35.8542,70.9585,313.7133,0,U,69988,999,201,-.42453E-2,-.1801658E-1,.94475E-3
STARLINK-38080,2026-159Q,2026-07-16T04:00:01.998720,15.96841324,.0001548,97.2850,35.8541,69.7990,313.7683,0,U,69989,999,201,-.4329E-2,-.1824184E-1,.96567E-3
STARLINK-38070,2026-159R,2026-07-16T04:00:01.998720,15.97109637,.000141,97.2850,35.8549,68.9604,316.8701,0,U,69990,999,201,-.42082E-2,-.1799648E-1,.94423E-3
STARLINK-38042,2026-159S,2026-07-16T04:00:01.998720,15.97223356,.0001481,97.2849,35.8553,78.8470,307.9578,0,U,69991,999,201,-.41357E-2,-.1779861E-1,.92603E-3
STARLINK-38071,2026-159T,2026-07-16T04:00:01.998720,15.97342357,.0001377,97.2849,35.8557,75.3623,312.4515,0,U,69992,999,201,-.4059E-2,-.1758464E-1,.90649E-3
STARLINK-38082,2026-159U,2026-07-16T04:00:01.998720,15.97466066,.0001396,97.2850,35.8561,78.2094,310.6377,0,U,69993,999,201,-.40286E-2,-.1757203E-1,.90651E-3
STARLINK-38090,2026-159V,2026-07-16T04:00:01.998720,15.97590715,.0001333,97.2850,35.8566,79.8538,310.0446,0,U,69994,999,201,-.39652E-2,-.1741547E-1,.89269E-3
STARLINK-38084,2026-159W,2026-07-16T04:00:01.998720,15.97725978,.0001402,97.2851,35.8572,74.7776,316.2637,0,U,69995,999,201,-.39373E-2,-.174218E-1,.89463E-3
STARLINK-38085,2026-159X,2026-07-16T04:00:01.998720,15.97833617,.0001437,97.2849,35.8577,77.5280,314.4829,0,U,69996,999,201,-.38763E-2,-.1725561E-1,.87979E-3
STARLINK-38091,2026-159Y,2026-07-16T04:00:01.998720,15.97968302,.0001438,97.2850,35.8580,70.8667,322.2513,0,U,69997,999,201,-.38559E-2,-.1729237E-1,.88461E-3
STARLINK-38086,2026-159Z,2026-07-16T04:00:01.998720,15.98073587,.0001412,97.2849,35.8585,89.1778,304.9817,0,U,69998,999,201,-.37651E-2,-.1698685E-1,.85663E-3
